{"type": "FeatureCollection", "features": [ {"type": "Feature", "properties": {"norad_id": 34681, "name": "COSMOS 2251 DEB", "group": "cosmos-2251-debris", "lat": -61.982530487884176, "lon": -83.57938764867811, "alt_km": 622.1422907412716, "timestamp": "2025-12-03T08:58:46.397882+00:00", "meta": {"OBJECT_NAME": "COSMOS 2251 DEB", "OBJECT_ID": "1993-036YB", "EPOCH": "2025-12-02T23:48:44.639712", "MEAN_MOTION": 14.82817537, "ECCENTRICITY": 0.0025739, "INCLINATION": 74.0622, "RA_OF_ASC_NODE": 309.6577, "ARG_OF_PERICENTER": 7.9896, "MEAN_ANOMALY": 47.5543, "EPHEMERIS_TYPE": 0, "CLASSIFICATION_TYPE": "U", "NORAD_CAT_ID": 34681, "ELEMENT_SET_NO": 999, "REV_AT_EPOCH": 89126, "BSTAR": 0.0020807, "MEAN_MOTION_DOT": 0.00016943, "MEAN_MOTION_DDOT": 0}, "tle": {"line1": "1 34681U 93036YB  25336.99218333  .00016943  00000+0  20807-2 0  9991", "line2": "2 34681  74.0622 309.6577 0025739   7.9896  47.5543 14.82817537891267"}}, "geometry": {"type": "Point", "coordinates": [-83.57938764867811, -61.982530487884176]}}, {"type": "Feature", "properties": {"norad_id": 34682, "name": "COSMOS 2251 DEB", "group": "cosmos-2251-debris", "lat": 35.876620639197256, "lon": -91.12448805795418, "alt_km": 694.6883732592969, "timestamp": "2025-12-03T08:58:46.397892+00:00", "meta": {"OBJECT_NAME": "COSMOS 2251 DEB", "OBJECT_ID": "1993-036YC", "EPOCH": "2025-12-03T02:33:46.878048", "MEAN_MOTION": 14.58768768, "ECCENTRICITY": 0.0018749, "INCLINATION": 74.0387, "RA_OF_ASC_NODE": 101.3309, "ARG_OF_PERICENTER": 234.5888, "MEAN_ANOMALY": 304.5202, "EPHEMERIS_TYPE": 0, "CLASSIFICATION_TYPE": "U", "NORAD_CAT_ID": 34682, "ELEMENT_SET_NO": 999, "REV_AT_EPOCH": 88545, "BSTAR": 0.0012954, "MEAN_MOTION_DOT": 6.042e-05, "MEAN_MOTION_DDOT": 0}, "tle": {"line1": "1 34682U 93036YC  25337.10679257  .00006042  00000+0  12954-2 0  9995", "line2": "2 34682  74.0387 101.3309 0018749 234.5888 304.5202 14.58768768885454"}}, "geometry": {"type": "Point", "coordinates": [-91.12448805795418, 35.876620639197256]}}, {"type": "Feature", "properties": {"norad_id": 34683, "name": "COSMOS 2251 DEB", "group": "cosmos-2251-debris", "lat": 65.90548723549561, "lon": -109.55289475927769, "alt_km": 678.6741890046678, "timestamp": "2025-12-03T08:58:46.397902+00:00", "meta": {"OBJECT_NAME": "COSMOS 2251 DEB", "OBJECT_ID": "1993-036YD", "EPOCH": "2025-12-02T19:56:32.027136", "MEAN_MOTION": 14.6424748, "ECCENTRICITY": 0.001891, "INCLINATION": 74.028, "RA_OF_ASC_NODE": 111.315, "ARG_OF_PERICENTER": 226.2132, "MEAN_ANOMALY": 259.9098, "EPHEMERIS_TYPE": 0, "CLASSIFICATION_TYPE": "U", "NORAD_CAT_ID": 34683, "ELEMENT_SET_NO": 999, "REV_AT_EPOCH": 88203, "BSTAR": 0.0018739, "MEAN_MOTION_DOT": 9.885e-05, "MEAN_MOTION_DDOT": 0}, "tle": {"line1": "1 34683U 93036YD  25336.83092624  .00009885  00000+0  18739-2 0  9997", "line2": "2 34683  74.0280 111.3150 0018910 226.2132 259.9098 14.64247480882039"}}, "geometry": {"type": "Point", "coordinates": [-109.55289475927769, 65.90548723549561]}}, {"type": "Feature", "properties": {"norad_id": 34685, "name": "COSMOS 2251 DEB", "group": "cosmos-2251-debris", "lat": 44.80011697528819, "lon": -29.935186514776337, "alt_km": 705.0571201957137, "timestamp": "2025-12-03T08:58:46.397912+00:00", "meta": {"OBJECT_NAME": "COSMOS 2251 DEB", "OBJECT_ID": "1993-036YF", "EPOCH": "2025-12-02T23:03:11.927808", "MEAN_MOTION": 14.57362176, "ECCENTRICITY": 0.0014427, "INCLINATION": 74.029, "RA_OF_ASC_NODE": 167.3734, "ARG_OF_PERICENTER": 271.3415, "MEAN_ANOMALY": 212.528, "EPHEMERIS_TYPE": 0, "CLASSIFICATION_TYPE": "U", "NORAD_CAT_ID": 34685, "ELEMENT_SET_NO": 999, "REV_AT_EPOCH": 88389, "BSTAR": 0.0012433, "MEAN_MOTION_DOT": 5.617e-05, "MEAN_MOTION_DDOT": 0}, "tle": {"line1": "1 34685U 93036YF  25336.96055472  .00005617  00000+0  12433-2 0  9997", "line2": "2 34685  74.0290 167.3734 0014427 271.3415 212.5280 14.57362176883890"}}, "geometry": {"type": "Point", "coordinates": [-29.935186514776337, 44.80011697528819]}}, {"type": "Feature", "properties": {"norad_id": 34689, "name": "COSMOS 2251 DEB", "group": "cosmos-2251-debris", "lat": -34.07908511934988, "lon": -131.4455504705004, "alt_km": 723.0412122174548, "timestamp": "2025-12-03T08:58:46.397922+00:00", "meta": {"OBJECT_NAME": "COSMOS 2251 DEB", "OBJECT_ID": "1993-036YK", "EPOCH": "2025-12-01T04:52:05.077056", "MEAN_MOTION": 14.04150485, "ECCENTRICITY": 0.0229843, "INCLINATION": 74.0888, "RA_OF_ASC_NODE": 243.4543, "ARG_OF_PERICENTER": 314.8144, "MEAN_ANOMALY": 197.2792, "EPHEMERIS_TYPE": 0, "CLASSIFICATION_TYPE": "U", "NORAD_CAT_ID": 34689, "ELEMENT_SET_NO": 999, "REV_AT_EPOCH": 84179, "BSTAR": 0.0056499, "MEAN_MOTION_DOT": 0.00011323, "MEAN_MOTION_DDOT": 0}, "tle": {"line1": "1 34689U 93036YK  25335.20283654  .00011323  00000+0  56499-2 0  9993", "line2": "2 34689  74.0888 243.4543 0229843 314.8144 197.2792 14.04150485841793"}}, "geometry": {"type": "Point", "coordinates": [-131.4455504705004, -34.07908511934988]}}, {"type": "Feature", "properties": {"norad_id": 34721, "name": "COSMOS 2251 DEB", "group": "cosmos-2251-debris", "lat": -61.202123036325354, "lon": -165.85931655204573, "alt_km": 780.7965411042424, "timestamp": "2025-12-03T08:58:46.397932+00:00", "meta": {"OBJECT_NAME": "COSMOS 2251 DEB", "OBJECT_ID": "1993-036YP", "EPOCH": "2025-12-02T07:48:06.027264", "MEAN_MOTION": 13.96762831, "ECCENTRICITY": 0.022397, "INCLINATION": 73.9234, "RA_OF_ASC_NODE": 344.3187, "ARG_OF_PERICENTER": 285.1168, "MEAN_ANOMALY": 89.0422, "EPHEMERIS_TYPE": 0, "CLASSIFICATION_TYPE": "U", "NORAD_CAT_ID": 34721, "ELEMENT_SET_NO": 999, "REV_AT_EPOCH": 85004, "BSTAR": 0.0021289, "MEAN_MOTION_DOT": 3.628e-05, "MEAN_MOTION_DDOT": 0}, "tle": {"line1": "1 34721U 93036YP  25336.32506976  .00003628  00000+0  21289-2 0  9997", "line2": "2 34721  73.9234 344.3187 0223970 285.1168  89.0422 13.96762831850049"}}, "geometry": {"type": "Point", "coordinates": [-165.85931655204573, -61.202123036325354]}}, {"type": "Feature", "properties": {"norad_id": 34722, "name": "COSMOS 2251 DEB", "group": "cosmos-2251-debris", "lat": -32.822339112842556, "lon": -17.98250059847218, "alt_km": 773.2120430889508, "timestamp": "2025-12-03T08:58:46.397942+00:00", "meta": {"OBJECT_NAME": "COSMOS 2251 DEB", "OBJECT_ID": "1993-036YQ", "EPOCH": "2025-12-02T18:41:38.267232", "MEAN_MOTION": 14.11879532, "ECCENTRICITY": 0.0167509, "INCLINATION": 73.8718, "RA_OF_ASC_NODE": 353.835, "ARG_OF_PERICENTER": 281.1063, "MEAN_ANOMALY": 259.02, "EPHEMERIS_TYPE": 0, "CLASSIFICATION_TYPE": "U", "NORAD_CAT_ID": 34722, "ELEMENT_SET_NO": 999, "REV_AT_EPOCH": 86104, "BSTAR": 0.0010542, "MEAN_MOTION_DOT": 2.171e-05, "MEAN_MOTION_DDOT": 0}, "tle": {"line1": "1 34722U 93036YQ  25336.77891513  .00002171  00000+0  10542-2 0  9993", "line2": "2 34722  73.8718 353.8350 0167509 281.1063 259.0200 14.11879532861048"}}, "geometry": {"type": "Point", "coordinates": [-17.98250059847218, -32.822339112842556]}}, {"type": "Feature", "properties": {"norad_id": 34726, "name": "COSMOS 2251 DEB", "group": "cosmos-2251-debris", "lat": -11.201746389552563, "lon": -172.55882002418008, "alt_km": 673.968516675216, "timestamp": "2025-12-03T08:58:46.397952+00:00", "meta": {"OBJECT_NAME": "COSMOS 2251 DEB", "OBJECT_ID": "1993-036YU", "EPOCH": "2025-12-03T01:31:34.212288", "MEAN_MOTION": 14.59421635, "ECCENTRICITY": 0.0042502, "INCLINATION": 74.0292, "RA_OF_ASC_NODE": 4.782, "ARG_OF_PERICENTER": 158.4763, "MEAN_ANOMALY": 201.8202, "EPHEMERIS_TYPE": 0, "CLASSIFICATION_TYPE": "U", "NORAD_CAT_ID": 34726, "ELEMENT_SET_NO": 999, "REV_AT_EPOCH": 88361, "BSTAR": 0.00053701, "MEAN_MOTION_DOT": 2.547e-05, "MEAN_MOTION_DDOT": 0}, "tle": {"line1": "1 34726U 93036YU  25337.06359042  .00002547  00000+0  53701-3 0  9998", "line2": "2 34726  74.0292   4.7820 0042502 158.4763 201.8202 14.59421635883617"}}, "geometry": {"type": "Point", "coordinates": [-172.55882002418008, -11.201746389552563]}}, {"type": "Feature", "properties": {"norad_id": 34728, "name": "COSMOS 2251 DEB", "group": "cosmos-2251-debris", "lat": 45.376385463681494, "lon": -73.1484488662659, "alt_km": 628.1184013853926, "timestamp": "2025-12-03T08:58:46.397963+00:00", "meta": {"OBJECT_NAME": "COSMOS 2251 DEB", "OBJECT_ID": "1993-036YW", "EPOCH": "2025-12-03T02:14:02.627808", "MEAN_MOTION": 14.70683723, "ECCENTRICITY": 0.0040693, "INCLINATION": 74.0187, "RA_OF_ASC_NODE": 270.5171, "ARG_OF_PERICENTER": 70.8224, "MEAN_ANOMALY": 289.7344, "EPHEMERIS_TYPE": 0, "CLASSIFICATION_TYPE": "U", "NORAD_CAT_ID": 34728, "ELEMENT_SET_NO": 999, "REV_AT_EPOCH": 88658, "BSTAR": 0.0010464, "MEAN_MOTION_DOT": 6.43e-05, "MEAN_MOTION_DDOT": 0}, "tle": {"line1": "1 34728U 93036YW  25337.09308597  .00006430  00000+0  10464-2 0  9995", "line2": "2 34728  74.0187 270.5171 0040693  70.8224 289.7344 14.70683723886584"}}, "geometry": {"type": "Point", "coordinates": [-73.1484488662659, 45.376385463681494]}}, {"type": "Feature", "properties": {"norad_id": 34729, "name": "COSMOS 2251 DEB", "group": "cosmos-2251-debris", "lat": 22.34407607139463, "lon": 23.7407559621675, "alt_km": 625.3556738484767, "timestamp": "2025-12-03T08:58:46.397973+00:00", "meta": {"OBJECT_NAME": "COSMOS 2251 DEB", "OBJECT_ID": "1993-036YX", "EPOCH": "2025-12-03T04:16:12.936000", "MEAN_MOTION": 14.82353988, "ECCENTRICITY": 0.001226, "INCLINATION": 74.019, "RA_OF_ASC_NODE": 17.3642, "ARG_OF_PERICENTER": 142.4886, "MEAN_ANOMALY": 274.3437, "EPHEMERIS_TYPE": 0, "CLASSIFICATION_TYPE": "U", "NORAD_CAT_ID": 34729, "ELEMENT_SET_NO": 999, "REV_AT_EPOCH": 88316, "BSTAR": 0.0023532, "MEAN_MOTION_DOT": 0.00018876, "MEAN_MOTION_DDOT": 0}, "tle": {"line1": "1 34729U 93036YX  25337.17792750  .00018876  00000+0  23532-2 0  9990", "line2": "2 34729  74.0190  17.3642 0012260 142.4886 274.3437 14.82353988883162"}}, "geometry": {"type": "Point", "coordinates": [23.7407559621675, 22.34407607139463]}}]}